GSAT0215 (GALILEO 19)   
1 43055U 17079A   26169.77531633  .00000028  00000+0  00000+0 0  9998
2 43055  55.0730 221.4630 0003228 264.0800  95.9660  1.70474593 53016
GSAT0216 (GALILEO 20)   
1 43056U 17079B   26168.89331476  .00000034  00000+0  00000+0 0  9991
2 43056  55.0732 221.4873 0004317 276.2784  83.7610  1.70474666 53015
GSAT0217 (GALILEO 21)   
1 43057U 17079C   26167.35438370  .00000047  00000+0  00000+0 0  9997
2 43057  55.0717 221.5274 0004985 283.8791  76.1632  1.70474228 52976
GSAT0218 (GALILEO 22)   
1 43058U 17079D   26170.50733131  .00000026  00000+0  00000+0 0  9999
2 43058  55.0708 221.4378 0004305 273.7481  86.2815  1.70474769 53056
BEIDOU-3 M7             
1 43107U 18003A   26168.88749162 -.00000076  00000+0  00000+0 0  9997
2 43107  54.3274 302.2910 0004854  94.3023 265.7447  1.86227917 57360
BEIDOU-3 M8             
1 43108U 18003B   26169.90615947 -.00000081  00000+0  00000+0 0  9991
2 43108  54.3191 302.2370 0002561 260.9030  99.0620  1.86230763 57398
BEIDOU-3 M4             
1 43207U 18018A   26169.27525144 -.00000055  00000+0  00000+0 0  9997
2 43207  56.6521  63.1126 0007707  19.0373 341.0335  1.86230873 56767
BEIDOU-3 M3             
1 43208U 18018B   26169.34173260 -.00000056  00000+0  00000+0 0  9995
2 43208  56.6516  63.1145 0008713 341.3004  18.7097  1.86230730 56768
BEIDOU-3 M9             
1 43245U 18029A   26167.41170398 -.00000069  00000+0  00000+0 0  9997
2 43245  54.1945 299.9756 0001005 155.7517 204.2422  1.86227970 55886
BEIDOU-3 M10            
1 43246U 18029B   26167.88302684 -.00000070  00000+0  00000+0 0  9996
2 43246  54.1918 299.9862 0003800  39.8570 320.1615  1.86229082 55878
IRNSS-1I                
1 43286U 18035A   26166.83981681  .00000062  00000+0  00000+0 0  9991
2 43286  28.7520  74.2167 0017811 181.5598   5.5147  1.00272046 30064
COSMOS 2527 [GLONASS-M] 
1 43508U 18053A   26168.08468753 -.00000019  00000+0  00000+0 0  9990
2 43508  65.5776  73.9111 0006974 239.2690 120.6969  2.13102067 62279
BEIDOU-2 IGSO-7         
1 43539U 18057A   26169.91623215 -.00000038  00000+0  00000+0 0  9998
2 43539  55.1945 163.0418 0105215 238.0859 305.6783  1.00250965 29143
GSAT0221 (GALILEO 25)   
1 43564U 18060A   26168.65155293 -.00000090  00000+0  00000+0 0  9994
2 43564  57.1692 341.7677 0002595 303.5364  56.4325  1.70475954 49172
GSAT0222 (GALILEO 26)   
1 43565U 18060B   26170.04438053 -.00000093  00000+0  00000+0 0  9992
2 43565  57.1718 341.7337 0001999 248.0862 111.8861  1.70475706 49242
GSAT0219 (GALILEO 23)   
1 43566U 18060C   26167.33235302 -.00000086  00000+0  00000+0 0  9995
2 43566  57.1726 341.8084 0002038 324.7693  35.2133  1.70475853 49177
GSAT0220 (GALILEO 24)   
1 43567U 18060D   26169.31309456 -.00000092  00000+0  00000+0 0  9995
2 43567  57.1716 341.7543 0002146 313.4062  46.5693  1.70475651 49195
BEIDOU-3 M5             
1 43581U 18062A   26169.71794442  .00000056  00000+0  00000+0 0  9999
2 43581  54.0850 182.2515 0005660 289.9886  69.9738  1.86228577 53664
BEIDOU-3 M6             
1 43582U 18062B   26170.11837979  .00000057  00000+0  00000+0 0  9990
2 43582  54.0852 182.2272 0004954   8.3379 351.6928  1.86227867 53676
BEIDOU-3 M12            
1 43602U 18067A   26169.51983166  .00000056  00000+0  00000+0 0  9999
2 43602  54.1807 180.9950 0007814  29.6797 330.3861  1.86227728 53144
BEIDOU-3 M11            
1 43603U 18067B   26170.19185876  .00000059  00000+0  00000+0 0  9991
2 43603  54.1779 180.9358 0004503  12.7373 347.2939  1.86227141 53186
BEIDOU-3 M13            
1 43622U 18072A   26169.07281877 -.00000055  00000+0  00000+0 0  9998
2 43622  56.6251  62.6309 0007212 330.3756  29.6261  1.86231145 52676
BEIDOU-3 M14            
1 43623U 18072B   26167.86433090 -.00000051  00000+0  00000+0 0  9996
2 43623  56.6260  62.6651 0006189 359.6599   0.3805  1.86231280 52645
BEIDOU-3 M16            
1 43647U 18078A   26167.48269892 -.00000069  00000+0  00000+0 0  9992
2 43647  54.0905 300.0107 0007202  41.0576 318.9858  1.86232208 52140
BEIDOU-3 M15            
1 43648U 18078B   26169.22283431 -.00000076  00000+0  00000+0 0  9990
2 43648  54.0846 299.9501 0004125  57.8841 302.1506  1.86232335 52191
BEIDOU-3 G1             
1 43683U 18085A   26170.50253336 -.00000116  00000+0  00000+0 0  9996
2 43683   2.8750  97.3039 0008074 350.2235 161.0557  1.00270315 28080
COSMOS 2529 [GLONASS-M] 
1 43687U 18086A   26169.11967451  .00000057  00000+0  00000+0 0  9999
2 43687  64.2948 192.5630 0012066 256.5324 103.3830  2.13101950 59308
BEIDOU-3 M17            
1 43706U 18093A   26168.42222017  .00000058  00000+0  00000+0 0  9995
2 43706  54.1690 182.2880 0010176 292.0990 142.8043  1.86228332 51544
BEIDOU-3 M18            
1 43707U 18093B   26170.32164601  .00000059  00000+0  00000+0 0  9993
2 43707  54.1697 182.2155 0008016 320.7909  39.1732  1.86226376 51578
NAVSTAR 77 (USA 289)    
1 43873U 18109A   26170.26673370 -.00000015  00000+0  00000+0 0  9999
2 43873  55.6835  92.1043 0038201 197.8854 347.3976  2.00561682 55115
BEIDOU-3 IGSO-1         
1 44204U 19023A   26170.63121933 -.00000227  00000+0  00000+0 0  9993
2 44204  58.6985  37.6233 0025577 225.7008 349.9014  1.00290861  7230
